{
    "links": {
        "self": "http://www.neowsapp.com/rest/v1/neo/3776277?api_key=iIulBulltgU6a56xZRHN4H3l9WmuAYTsLGpBGhQ2"
    },
    "id": "3776277",
    "neo_reference_id": "3776277",
    "name": "(2017 MR8)",
    "designation": "2017 MR8",
    "nasa_jpl_url": "http://ssd.jpl.nasa.gov/sbdb.cgi?sstr=3776277",
    "absolute_magnitude_h": 25.0,
    "estimated_diameter": {
        "kilometers": {
            "estimated_diameter_min": 0.02658,
            "estimated_diameter_max": 0.0594346868
        },
        "meters": {
            "estimated_diameter_min": 26.58,
            "estimated_diameter_max": 59.4346868419
        },
        "miles": {
            "estimated_diameter_min": 0.0165160412,
            "estimated_diameter_max": 0.0369309908
        },
        "feet": {
            "estimated_diameter_min": 87.2047272,
            "estimated_diameter_max": 194.9956979785
        }
    },
    "is_potentially_hazardous_asteroid": false,
    "close_approach_data": [
        {
            "close_approach_date": "2017-07-15",
            "close_approach_date_full": "2017-Jul-15 02:14",
            "epoch_date_close_approach": 1500084840000,
            "relative_velocity": {
                "kilometers_per_second": "6.9450479988",
                "kilometers_per_hour": "25002.172795616",
                "miles_per_hour": "15535.377868476"
            },
            "miss_distance": {
                "astronomical": "0.0085115137",
                "lunar": "3.3109788293",
                "kilometers": "1273304.319995819",
                "miles": "791194.6162635422"
            },
            "orbiting_body": "Earth"
        }
    ],
    "orbital_data": {
        "orbit_id": "5",
        "orbit_determination_date": "2017-07-15 06:18:59",
        "first_observation_date": "2017-06-30",
        "last_observation_date": "2017-07-10",
        "data_arc_in_days": 10,
        "observations_used": 29,
        "orbit_uncertainty": "8",
        "minimum_orbit_intersection": ".00072573",
        "jupiter_tisserand_invariant": "4.569",
        "epoch_osculation": "2457937.5",
        "eccentricity": ".3305529035373883",
        "semi_major_axis": "1.454913870310961",
        "inclination": "6.163920484668638",
        "ascending_node_longitude": "110.3305124540496",
        "orbital_period": "640.9945739150752",
        "perihelion_distance": ".9739878660828538",
        "perihelion_argument": "214.174555548767",
        "aphelion_distance": "1.935839874539069",
        "perihelion_time": "2457977.658454949901",
        "mean_anomaly": "337.4459186235175",
        "mean_motion": ".5616272190904631",
        "equinox": "J2000",
        "orbit_class": {
            "orbit_class_type": "APO",
            "orbit_class_description": "Near-Earth asteroid orbits which cross the Earth’s orbit similar to that of 1862 Apollo",
            "orbit_class_range": "a (semi-major axis) > 1.0 AU; q (perihelion) < 1.017 AU"
        }
    },
    "is_sentry_object": false
}